[{"OBJECT_NAME":"FLOCK 4G-2","OBJECT_ID":"2025-009BE","EPOCH":"2026-03-09T15:53:23.273952","MEAN_MOTION":15.2767526,"ECCENTRICITY":0.00031811,"INCLINATION":97.4044,"RA_OF_ASC_NODE":151.2221,"ARG_OF_PERICENTER":329.2677,"MEAN_ANOMALY":30.8376,"EPHEMERIS_TYPE":0,"CLASSIFICATION_TYPE":"U","NORAD_CAT_ID":62661,"ELEMENT_SET_NO":999,"REV_AT_EPOCH":12132,"BSTAR":0.00051068481,"MEAN_MOTION_DOT":0.00013752,"MEAN_MOTION_DDOT":0},{"OBJECT_NAME":"STARLINK-35449","OBJECT_ID":"2025-262D","EPOCH":"2026-03-09T00:38:11.790240","MEAN_MOTION":15.27585412,"ECCENTRICITY":0.00022733,"INCLINATION":43.0069,"RA_OF_ASC_NODE":300.0347,"ARG_OF_PERICENTER":279.5484,"MEAN_ANOMALY":80.5111,"EPHEMERIS_TYPE":0,"CLASSIFICATION_TYPE":"U","NORAD_CAT_ID":66459,"ELEMENT_SET_NO":999,"REV_AT_EPOCH":1880,"BSTAR":0.0010811108,"MEAN_MOTION_DOT":0.00029613,"MEAN_MOTION_DDOT":0}]
