FLOCK 4G-2              
1 62661U 25009BE  26068.66207492  .00013752  00000+0  51068-3 0  9995
2 62661  97.4044 151.2221 0003181 329.2677  30.8376 15.27675260121321
STARLINK-35449          
1 66459U 25262D   26068.02652535  .00029613  00000+0  10811-2 0  9990
2 66459  43.0069 300.0347 0002273 279.5484  80.5111 15.27585412 18807
